{
  "type": "FeatureCollection",
  "features": [
    {
      "type": "Feature",
      "properties": {
        "norad_id": 66418,
        "name": "HULIANWANG DIGUI 13G",
        "group": "last-30-days",
        "lat": -1.6263056441264139,
        "lon": 99.8675827798014,
        "alt_km": 826.8124995571798,
        "timestamp": "2025-12-08T19:31:47.635372+00:00",
        "meta_object_name": "HULIANWANG DIGUI 13G",
        "meta_object_id": "2025-258G",
        "meta_epoch": "2025-12-08T00:06:43.626240",
        "meta_mean_motion": 14.21095084,
        "meta_eccentricity": 0.00064315,
        "meta_inclination": 50.001,
        "meta_ra_of_asc_node": 281.8936,
        "meta_arg_of_pericenter": 342.1402,
        "meta_mean_anomaly": 17.9283,
        "meta_ephemeris_type": 0,
        "meta_classification_type": "U",
        "meta_norad_cat_id": 66418,
        "meta_element_set_no": 999,
        "meta_rev_at_epoch": 398,
        "meta_bstar": 0.00026400163,
        "meta_mean_motion_dot": 4.19e-06,
        "meta_mean_motion_ddot": 0,
        "tle_line1": "1 66418U 25258G   25342.00467160  .00000419  00000+0  26400-3 0  9995",
        "tle_line2": "2 66418  50.0010 281.8936 0006431 342.1402  17.9283 14.21095084  3984"
      },
      "geometry": {
        "type": "Point",
        "coordinates": [
          99.8675827798014,
          -1.6263056441264139
        ]
      }
    },
    {
      "type": "Feature",
      "properties": {
        "norad_id": 66419,
        "name": "HULIANWANG DIGUI 13H",
        "group": "last-30-days",
        "lat": -8.946320624887706,
        "lon": 106.0807374256668,
        "alt_km": 827.2798944409096,
        "timestamp": "2025-12-08T19:31:47.635381+00:00",
        "meta_object_name": "HULIANWANG DIGUI 13H",
        "meta_object_id": "2025-258H",
        "meta_epoch": "2025-12-08T01:45:21.769632",
        "meta_mean_motion": 14.21195005,
        "meta_eccentricity": 0.00066788,
        "meta_inclination": 50.0005,
        "meta_ra_of_asc_node": 281.5907,
        "meta_arg_of_pericenter": 343.8821,
        "meta_mean_anomaly": 16.1878,
        "meta_ephemeris_type": 0,
        "meta_classification_type": "U",
        "meta_norad_cat_id": 66419,
        "meta_element_set_no": 999,
        "meta_rev_at_epoch": 399,
        "meta_bstar": 0.00024420604,
        "meta_mean_motion_dot": 3.76e-06,
        "meta_mean_motion_ddot": 0,
        "tle_line1": "1 66419U 25258H   25342.07316863  .00000376  00000+0  24421-3 0  9999",
        "tle_line2": "2 66419  50.0005 281.5907 0006678 343.8821  16.1878 14.21195005  3996"
      },
      "geometry": {
        "type": "Point",
        "coordinates": [
          106.0807374256668,
          -8.946320624887706
        ]
      }
    },
    {
      "type": "Feature",
      "properties": {
        "norad_id": 66420,
        "name": "HULIANWANG DIGUI 13J",
        "group": "last-30-days",
        "lat": -15.22205299374171,
        "lon": 111.67662070257225,
        "alt_km": 826.3723253707076,
        "timestamp": "2025-12-08T19:31:47.635393+00:00",
        "meta_object_name": "HULIANWANG DIGUI 13J",
        "meta_object_id": "2025-258J",
        "meta_epoch": "2025-12-08T00:01:56.434368",
        "meta_mean_motion": 14.21408362,
        "meta_eccentricity": 0.00056864,
        "meta_inclination": 50.0052,
        "meta_ra_of_asc_node": 281.8794,
        "meta_arg_of_pericenter": 345.903,
        "meta_mean_anomaly": 14.1722,
        "meta_ephemeris_type": 0,
        "meta_classification_type": "U",
        "meta_norad_cat_id": 66420,
        "meta_element_set_no": 999,
        "meta_rev_at_epoch": 397,
        "meta_bstar": 0.00024099308,
        "meta_mean_motion_dot": 3.71e-06,
        "meta_mean_motion_ddot": 0,
        "tle_line1": "1 66420U 25258J   25342.00134762  .00000371  00000+0  24099-3 0  9996",
        "tle_line2": "2 66420  50.0052 281.8794 0005686 345.9030  14.1722 14.21408362  3977"
      },
      "geometry": {
        "type": "Point",
        "coordinates": [
          111.67662070257225,
          -15.22205299374171
        ]
      }
    },
    {
      "type": "Feature",
      "properties": {
        "norad_id": 66421,
        "name": "CZ-12 R/B",
        "group": "last-30-days",
        "lat": -31.310140846048192,
        "lon": 125.69940524074904,
        "alt_km": 709.5305146360397,
        "timestamp": "2025-12-08T19:31:47.635402+00:00",
        "meta_object_name": "CZ-12 R/B",
        "meta_object_id": "2025-258K",
        "meta_epoch": "2025-12-08T06:51:30.704256",
        "meta_mean_motion": 14.42321586,
        "meta_eccentricity": 0.00645171,
        "meta_inclination": 49.996,
        "meta_ra_of_asc_node": 277.2749,
        "meta_arg_of_pericenter": 233.3884,
        "meta_mean_anomaly": 126.1092,
        "meta_ephemeris_type": 0,
        "meta_classification_type": "U",
        "meta_norad_cat_id": 66421,
        "meta_element_set_no": 999,
        "meta_rev_at_epoch": 407,
        "meta_bstar": 0.00015018702,
        "meta_mean_motion_dot": 3.42e-06,
        "meta_mean_motion_ddot": 0,
        "tle_line1": "1 66421U 25258K   25342.28577204  .00000342  00000+0  15019-3 0  9999",
        "tle_line2": "2 66421  49.9960 277.2749 0064517 233.3884 126.1092 14.42321586  4078"
      },
      "geometry": {
        "type": "Point",
        "coordinates": [
          125.69940524074904,
          -31.310140846048192
        ]
      }
    },
    {
      "type": "Feature",
      "properties": {
        "norad_id": 66422,
        "name": "STARLINK-35617",
        "group": "last-30-days",
        "lat": 41.735473831305214,
        "lon": 177.54533643025903,
        "alt_km": 437.84311743089165,
        "timestamp": "2025-12-08T19:31:47.635412+00:00",
        "meta_object_name": "STARLINK-35617",
        "meta_object_id": "2025-259A",
        "meta_epoch": "2025-12-08T06:38:27.210048",
        "meta_mean_motion": 15.40738952,
        "meta_eccentricity": 0.00010963,
        "meta_inclination": 43.0017,
        "meta_ra_of_asc_node": 73.8291,
        "meta_arg_of_pericenter": 258.3804,
        "meta_mean_anomaly": 101.6929,
        "meta_ephemeris_type": 0,
        "meta_classification_type": "U",
        "meta_norad_cat_id": 66422,
        "meta_element_set_no": 999,
        "meta_rev_at_epoch": 547,
        "meta_bstar": 0.0011336609,
        "meta_mean_motion_dot": 0.00047408,
        "meta_mean_motion_ddot": 0,
        "tle_line1": "1 66422U 25259A   25342.27670382  .00047408  00000+0  11337-2 0  9993",
        "tle_line2": "2 66422  43.0017  73.8291 0001096 258.3804 101.6929 15.40738952  5471"
      },
      "geometry": {
        "type": "Point",
        "coordinates": [
          177.54533643025903,
          41.735473831305214
        ]
      }
    },
    {
      "type": "Feature",
      "properties": {
        "norad_id": 66423,
        "name": "STARLINK-35618",
        "group": "last-30-days",
        "lat": 38.24676350359631,
        "lon": -167.0646448247339,
        "alt_km": 438.64388393889567,
        "timestamp": "2025-12-08T19:31:47.635423+00:00",
        "meta_object_name": "STARLINK-35618",
        "meta_object_id": "2025-259B",
        "meta_epoch": "2025-12-08T06:00:02.999808",
        "meta_mean_motion": 15.40641504,
        "meta_eccentricity": 0.00013924,
        "meta_inclination": 43.0003,
        "meta_ra_of_asc_node": 73.9508,
        "meta_arg_of_pericenter": 253.9371,
        "meta_mean_anomaly": 330.4933,
        "meta_ephemeris_type": 0,
        "meta_classification_type": "U",
        "meta_norad_cat_id": 66423,
        "meta_element_set_no": 999,
        "meta_rev_at_epoch": 555,
        "meta_bstar": 0.0016487104,
        "meta_mean_motion_dot": 0.00069058,
        "meta_mean_motion_ddot": 0,
        "tle_line1": "1 66423U 25259B   25342.25003472  .00069058  00000+0  16487-2 0  9998",
        "tle_line2": "2 66423  43.0003  73.9508 0001392 253.9371 330.4933 15.40641504  5550"
      },
      "geometry": {
        "type": "Point",
        "coordinates": [
          -167.0646448247339,
          38.24676350359631
        ]
      }
    },
    {
      "type": "Feature",
      "properties": {
        "norad_id": 66424,
        "name": "STARLINK-35588",
        "group": "last-30-days",
        "lat": 32.842467462549976,
        "lon": -153.17196809238447,
        "alt_km": 439.29147274625575,
        "timestamp": "2025-12-08T19:31:47.635432+00:00",
        "meta_object_name": "STARLINK-35588",
        "meta_object_id": "2025-259C",
        "meta_epoch": "2025-12-08T06:00:02.999808",
        "meta_mean_motion": 15.40687613,
        "meta_eccentricity": 0.00013937,
        "meta_inclination": 43.0005,
        "meta_ra_of_asc_node": 73.9215,
        "meta_arg_of_pericenter": 260.1098,
        "meta_mean_anomaly": 336.7424,
        "meta_ephemeris_type": 0,
        "meta_classification_type": "U",
        "meta_norad_cat_id": 66424,
        "meta_element_set_no": 999,
        "meta_rev_at_epoch": 555,
        "meta_bstar": 0.0017152724,
        "meta_mean_motion_dot": 0.00071997,
        "meta_mean_motion_ddot": 0,
        "tle_line1": "1 66424U 25259C   25342.25003472  .00071997  00000+0  17153-2 0  9995",
        "tle_line2": "2 66424  43.0005  73.9215 0001393 260.1098 336.7424 15.40687613  5550"
      },
      "geometry": {
        "type": "Point",
        "coordinates": [
          -153.17196809238447,
          32.842467462549976
        ]
      }
    }
  ]
}